[
    {
        "Altitude(m)": 561736.636821232,
        "Argument of Periapsis(deg)": 0.019868973332140504,
        "Eccentricity": 0.0,
        "Inclination(deg)": 53.0,
        "Latitude(deg)": -28.01390260308,
        "Longitude(deg)": -93.88268334811983,
        "Mean Anomaly(deg)": -144.27062139726723,
        "RAAN(deg)": 164.97043010558406,
        "Satellite Name": "Starlink Shell 1 737",
        "Satellite Number": 737,
        "Semi-Major Axis(m)": 6931778.249405717,
        "Time(s)": 570
    },
    {
        "Altitude(m)": 561910.651185606,
        "Argument of Periapsis(deg)": 0.02021755181165174,
        "Eccentricity": 0.0,
        "Inclination(deg)": 53.0,
        "Latitude(deg)": -28.473412159142388,
        "Longitude(deg)": -93.44021111938532,
        "Mean Anomaly(deg)": -143.64379019371052,
        "RAAN(deg)": 164.96991133550654,
        "Satellite Name": "Starlink Shell 1 737",
        "Satellite Number": 737,
        "Semi-Major Axis(m)": 6931778.249405717,
        "Time(s)": 580
    },
    {
        "Altitude(m)": 562085.0468380789,
        "Argument of Periapsis(deg)": 0.020566130291162974,
        "Eccentricity": 0.0,
        "Inclination(deg)": 53.0,
        "Latitude(deg)": -28.931141715904307,
        "Longitude(deg)": -92.99356054202548,
        "Mean Anomaly(deg)": -143.0169589901538,
        "RAAN(deg)": 164.9693925654291,
        "Satellite Name": "Starlink Shell 1 737",
        "Satellite Number": 737,
        "Semi-Major Axis(m)": 6931778.249405717,
        "Time(s)": 590
    },
    {
        "Altitude(m)": 562259.7589406524,
        "Argument of Periapsis(deg)": 0.020914708770674213,
        "Eccentricity": 0.0,
        "Inclination(deg)": 53.0,
        "Latitude(deg)": -29.38704290584027,
        "Longitude(deg)": -92.54263116044898,
        "Mean Anomaly(deg)": -142.3901277865971,
        "RAAN(deg)": 164.96887379535164,
        "Satellite Name": "Starlink Shell 1 737",
        "Satellite Number": 737,
        "Semi-Major Axis(m)": 6931778.249405717,
        "Time(s)": 600
    },
    {
        "Altitude(m)": 562434.7223670442,
        "Argument of Periapsis(deg)": 0.021263287250185448,
        "Eccentricity": 0.0,
        "Inclination(deg)": 53.0,
        "Latitude(deg)": -29.84106628441165,
        "Longitude(deg)": -92.08732122444201,
        "Mean Anomaly(deg)": -141.76329658304044,
        "RAAN(deg)": 164.96835502527415,
        "Satellite Name": "Starlink Shell 1 737",
        "Satellite Number": 737,
        "Semi-Major Axis(m)": 6931778.249405717,
        "Time(s)": 610
    },
    {
        "Altitude(m)": 562609.8717319334,
        "Argument of Periapsis(deg)": 0.021611865729696686,
        "Eccentricity": 0.0,
        "Inclination(deg)": 53.0,
        "Latitude(deg)": -30.29316129949792,
        "Longitude(deg)": -91.62752719259841,
        "Mean Anomaly(deg)": -141.13646537948367,
        "RAAN(deg)": 164.96783625519666,
        "Satellite Name": "Starlink Shell 1 737",
        "Satellite Number": 737,
        "Semi-Major Axis(m)": 6931778.249405717,
        "Time(s)": 620
    },
    {
        "Altitude(m)": 562785.1414202491,
        "Argument of Periapsis(deg)": 0.02196044420920792,
        "Eccentricity": 0.0,
        "Inclination(deg)": 53.0,
        "Latitude(deg)": -30.74327626044366,
        "Longitude(deg)": -91.16314492036025,
        "Mean Anomaly(deg)": -140.50963417592692,
        "RAAN(deg)": 164.96731748511922,
        "Satellite Name": "Starlink Shell 1 737",
        "Satellite Number": 737,
        "Semi-Major Axis(m)": 6931778.249405717,
        "Time(s)": 630
    },
    {
        "Altitude(m)": 562960.4656166163,
        "Argument of Periapsis(deg)": 0.02230902268871916,
        "Eccentricity": 0.0,
        "Inclination(deg)": 53.0,
        "Latitude(deg)": -31.19135830675585,
        "Longitude(deg)": -90.69406833053225,
        "Mean Anomaly(deg)": -139.88280297237026,
        "RAAN(deg)": 164.9667987150417,
        "Satellite Name": "Starlink Shell 1 737",
        "Satellite Number": 737,
        "Semi-Major Axis(m)": 6931778.249405717,
        "Time(s)": 640
    },
    {
        "Altitude(m)": 563135.778334837,
        "Argument of Periapsis(deg)": 0.022657601168230398,
        "Eccentricity": 0.0,
        "Inclination(deg)": 53.0,
        "Latitude(deg)": -31.637353376487674,
        "Longitude(deg)": -90.22019060950177,
        "Mean Anomaly(deg)": -139.2559717688135,
        "RAAN(deg)": 164.96627994496427,
        "Satellite Name": "Starlink Shell 1 737",
        "Satellite Number": 737,
        "Semi-Major Axis(m)": 6931778.249405717,
        "Time(s)": 650
    },
    {
        "Altitude(m)": 563311.0134474763,
        "Argument of Periapsis(deg)": 0.023006179647741636,
        "Eccentricity": 0.0,
        "Inclination(deg)": 53.0,
        "Latitude(deg)": -32.08120617435056,
        "Longitude(deg)": -89.74140372706593,
        "Mean Anomaly(deg)": -138.62914056525688,
        "RAAN(deg)": 164.96576117488678,
        "Satellite Name": "Starlink Shell 1 737",
        "Satellite Number": 737,
        "Semi-Major Axis(m)": 6931778.249405717,
        "Time(s)": 660
    },
    {
        "Altitude(m)": 563486.1047154877,
        "Argument of Periapsis(deg)": 0.023354758127252868,
        "Eccentricity": 0.0,
        "Inclination(deg)": 53.0,
        "Latitude(deg)": -32.52286013960449,
        "Longitude(deg)": -89.25759796118632,
        "Mean Anomaly(deg)": -138.00230936170007,
        "RAAN(deg)": 164.96524240480932,
        "Satellite Name": "Starlink Shell 1 737",
        "Satellite Number": 737,
        "Semi-Major Axis(m)": 6931778.249405717,
        "Time(s)": 670
    },
    {
        "Altitude(m)": 563660.98581787,
        "Argument of Periapsis(deg)": 0.023703336606764106,
        "Eccentricity": 0.0,
        "Inclination(deg)": 53.0,
        "Latitude(deg)": -32.96225741377752,
        "Longitude(deg)": -88.76866294091869,
        "Mean Anomaly(deg)": -137.37547815814338,
        "RAAN(deg)": 164.96472363473183,
        "Satellite Name": "Starlink Shell 1 737",
        "Satellite Number": 737,
        "Semi-Major Axis(m)": 6931778.249405717,
        "Time(s)": 680
    },
    {
        "Altitude(m)": 563835.5903813569,
        "Argument of Periapsis(deg)": 0.024051915086275345,
        "Eccentricity": 0.0,
        "Inclination(deg)": 53.0,
        "Latitude(deg)": -33.39933880827804,
        "Longitude(deg)": -88.27448718215408,
        "Mean Anomaly(deg)": -136.7486469545867,
        "RAAN(deg)": 164.9642048646544,
        "Satellite Name": "Starlink Shell 1 737",
        "Satellite Number": 737,
        "Semi-Major Axis(m)": 6931778.249405717,
        "Time(s)": 690
    },
    {
        "Altitude(m)": 564009.8520101489,
        "Argument of Periapsis(deg)": 0.024400493565786583,
        "Eccentricity": 0.0,
        "Inclination(deg)": 53.0,
        "Latitude(deg)": -33.83404377196454,
        "Longitude(deg)": -87.77495762945635,
        "Mean Anomaly(deg)": -136.1218157510299,
        "RAAN(deg)": 164.96368609457687,
        "Satellite Name": "Starlink Shell 1 737",
        "Satellite Number": 737,
        "Semi-Major Axis(m)": 6931778.249405717,
        "Time(s)": 700
    },
    {
        "Altitude(m)": 564183.7043155782,
        "Argument of Periapsis(deg)": 0.024749072045297815,
        "Eccentricity": 0.0,
        "Inclination(deg)": 53.0,
        "Latitude(deg)": -34.26631035874807,
        "Longitude(deg)": -87.26996071730002,
        "Mean Anomaly(deg)": -135.49498454747322,
        "RAAN(deg)": 164.96316732449944,
        "Satellite Name": "Starlink Shell 1 737",
        "Satellite Number": 737,
        "Semi-Major Axis(m)": 6931778.249405717,
        "Time(s)": 710
    },
    {
        "Altitude(m)": 564357.0809458366,
        "Argument of Periapsis(deg)": 0.025097650524809053,
        "Eccentricity": 0.0,
        "Inclination(deg)": 53.0,
        "Latitude(deg)": -34.696075195310996,
        "Longitude(deg)": -86.75938192540414,
        "Mean Anomaly(deg)": -134.8681533439165,
        "RAAN(deg)": 164.96264855442195,
        "Satellite Name": "Starlink Shell 1 737",
        "Satellite Number": 737,
        "Semi-Major Axis(m)": 6931778.249405717,
        "Time(s)": 720
    },
    {
        "Altitude(m)": 564529.9156155956,
        "Argument of Periapsis(deg)": 0.02544622900432029,
        "Eccentricity": 0.0,
        "Inclination(deg)": 53.0,
        "Latitude(deg)": -35.12327344903121,
        "Longitude(deg)": -86.24310534150881,
        "Mean Anomaly(deg)": -134.2413221403598,
        "RAAN(deg)": 164.96212978434448,
        "Satellite Name": "Starlink Shell 1 737",
        "Satellite Number": 737,
        "Semi-Major Axis(m)": 6931778.249405717,
        "Time(s)": 730
    },
    {
        "Altitude(m)": 564702.142135653,
        "Argument of Periapsis(deg)": 0.02579480748383153,
        "Eccentricity": 0.0,
        "Inclination(deg)": 53.0,
        "Latitude(deg)": -35.547838796212964,
        "Longitude(deg)": -85.7210147449526,
        "Mean Anomaly(deg)": -133.61449093680307,
        "RAAN(deg)": 164.961611014267,
        "Satellite Name": "Starlink Shell 1 737",
        "Satellite Number": 737,
        "Semi-Major Axis(m)": 6931778.249405717,
        "Time(s)": 740
    },
    {
        "Altitude(m)": 564873.694442473,
        "Argument of Periapsis(deg)": 0.026143385963342765,
        "Eccentricity": 0.0,
        "Inclination(deg)": 53.0,
        "Latitude(deg)": -35.96970339073294,
        "Longitude(deg)": -85.19299318581011,
        "Mean Anomaly(deg)": -132.9876597332463,
        "RAAN(deg)": 164.96109224418956,
        "Satellite Name": "Starlink Shell 1 737",
        "Satellite Number": 737,
        "Semi-Major Axis(m)": 6931778.249405717,
        "Time(s)": 750
    }
]